[{"OBJECT_NAME":"STARLINK-5328","OBJECT_ID":"2023-021AF","EPOCH":"2026-03-09T15:26:48.457824","MEAN_MOTION":14.98333056,"ECCENTRICITY":0.0003409,"INCLINATION":70.0005,"RA_OF_ASC_NODE":164.7339,"ARG_OF_PERICENTER":271.1096,"MEAN_ANOMALY":88.9673,"EPHEMERIS_TYPE":0,"CLASSIFICATION_TYPE":"U","NORAD_CAT_ID":55657,"ELEMENT_SET_NO":999,"REV_AT_EPOCH":16927,"BSTAR":-2.847e-5,"MEAN_MOTION_DOT":-4.33e-6,"MEAN_MOTION_DDOT":0},{"OBJECT_NAME":"QPS-SAR-12 (KUSHINADA-I)","OBJECT_ID":"2025-169A","EPOCH":"2026-03-09T10:50:23.327232","MEAN_MOTION":14.99881586,"ECCENTRICITY":0.00077939,"INCLINATION":42.0102,"RA_OF_ASC_NODE":204.8332,"ARG_OF_PERICENTER":277.3009,"MEAN_ANOMALY":82.6931,"EPHEMERIS_TYPE":0,"CLASSIFICATION_TYPE":"U","NORAD_CAT_ID":65116,"ELEMENT_SET_NO":999,"REV_AT_EPOCH":3243,"BSTAR":0.00057220088,"MEAN_MOTION_DOT":7.038e-5,"MEAN_MOTION_DDOT":0}]
